STARLINK-30318          
1 57711C 23129P   26149.26368056 -.00095256  00000+0 -34512-2 0  1498
2 57711  43.0041  22.5638 0001662 257.7477 285.5767 15.27615680    17
STARLINK-30348          
1 57712C 23129Q   26149.25326389  .00017277  00000+0  62610-3 0  1497
2 57712  43.0023  23.0208 0001571 282.6769  40.5308 15.27553382    17
STARLINK-30349          
1 57713C 23129R   26149.21993056  .00045341  00000+0  16427-2 0  1492
2 57713  43.0018  23.3016 0001389 263.1164 194.1280 15.27546230    11
STARLINK-30341          
1 57714C 23129S   26149.20256944  .00004173  00000+0  15103-3 0  1499
2 57714  43.0045  26.5277 0001528 273.0345 204.5326 15.27598452    12
STARLINK-30300          
1 57715C 23129T   26149.27201389  .00016142  00000+0  58498-3 0  1493
2 57715  43.0024  22.8634 0001334 272.9135 174.7745 15.27551972    15
STARLINK-30281          
1 57716C 23129U   26149.25534722  .00007790  00000+0  28191-3 0  1498
2 57716  43.0034  23.2377 0001359 268.5010 327.1753 15.27602880    14
STARLINK-30325          
1 57717C 23129V   26149.20812500 -.00006430  00000+0 -23289-3 0  1492
2 57717  43.0019  23.3209 0001783 257.7352 155.7501 15.27579855    14
STARLINK-30338          
1 57718C 23129W   26149.26020833 -.00106530  00000+0 -38564-2 0  1492
2 57718  43.0025  23.1572 0001747 265.1608  18.4491 15.27647645    16
STARLINK-30334          
1 57719C 23129X   26149.22965278  .00036225  00000+0  13134-2 0  1497
2 57719  43.0016  23.2802 0001760 287.2119 209.4688 15.27528092    15
STARLINK-30375          
1 57732C 23131A   26149.23451389  .00072745  00000+0  26332-2 0  1490
2 57732  43.0037  62.7288 0001276 277.9968 280.3922 15.27562905    19
STARLINK-30310          
1 57733C 23131B   26149.21715278  .00060768  00000+0  22599-2 0  1492
2 57733  43.0052  85.2021 0001655 262.0415  99.6250 15.26680617    10
STARLINK-30365          
1 57734C 23131C   26149.23104167  .00007975  00000+0  28902-3 0  1490
2 57734  43.0019  77.6727 0001277 280.7434  56.4190 15.27556748    12
STARLINK-30371          
1 57735C 23131D   26149.21993056  .00066256  00000+0  24637-2 0  1499
2 57735  43.0047  85.0283 0001178 277.7316 165.9102 15.26681682    13
STARLINK-30352          
1 57736C 23131E   26149.26437500  .00053947  00000+0  20054-2 0  1494
2 57736  43.0046  84.8133 0001533 278.8497  34.5228 15.26697294    17
STARLINK-30344          
1 57737C 23131F   26149.24076389  .00049787  00000+0  33421-2 0  1496
2 57737  43.0015  91.8060 0000466 174.3021 354.3973 15.06044202    11
STARLINK-30351          
1 57738C 23131G   26149.27270833  .00066509  00000+0  24110-2 0  1496
2 57738  43.0008  77.1528 0001419 278.7615  62.2735 15.27517539    19
STARLINK-30242          
1 57739C 23131H   26149.22479167  .00035400  00000+0  12832-2 0  1497
2 57739  43.0041  48.8343 0001446 267.9447 290.0074 15.27533602    16
STARLINK-30331          
1 57740C 23131J   26149.24979167  .00001640  00000+0  59446-4 0  1499
2 57740  43.0036   4.4414 0001033 251.6238 167.4917 15.27555457    14
STARLINK-30364          
1 57741C 23131K   26149.26576389  .00032923  00000+0  11931-2 0  1494
2 57741  43.0018  77.1566 0001318 268.2510  48.6211 15.27545497    13
STARLINK-30308          
1 57742C 23131L   26149.21229167  .00081542  00000+0  29545-2 0  1490
2 57742  43.0011  77.7287 0001378 273.0253 356.1146 15.27526150    16
STARLINK-30361          
1 57743C 23131M   26149.24145833  .00041124  00000+0  14904-2 0  1496
2 57743  43.0003  77.3768 0001602 279.6555 228.0117 15.27537912    18
STARLINK-30363          
1 57744C 23131N   26149.28451389  .00010634  00000+0  38497-3 0  1493
2 57744  43.0051  62.7871 0001719 260.5260  71.6554 15.27588163    17
STARLINK-30362          
1 57745C 23131P   26149.28381944  .00083119  00000+0  30114-2 0  1498
2 57745  43.0041  77.7038 0001240 273.3252 226.9199 15.27528265    17
STARLINK-30350          
1 57746C 23131Q   26149.21645833  .00079402  00000+0  28732-2 0  1495
2 57746  43.0021  74.2913 0001222 274.2004  15.3054 15.27569906    12
STARLINK-30307          
1 57747C 23131R   26149.23104167  .00010206  00000+0  36985-3 0  1495
2 57747  43.0025  77.7662 0001356 279.7778  29.0544 15.27556981    17
STARLINK-30356          
1 57748C 23131S   26149.19284722  .00101870  00000+0  36938-2 0  1492
2 57748  43.0042  77.4831 0001683 265.6060  45.0836 15.27492151    13
STARLINK-30366          
1 57749C 23131T   26149.23868056  .00077252  00000+0  29428-2 0  1498
2 57749  43.0014  80.8426 0001752 272.5865 205.0727 15.25878852    19
STARLINK-30357          
1 57750C 23131U   26149.20673611 -.00001505  00000+0 -54532-4 0  1494
2 57750  43.0041  85.1502 0001323 276.9164  72.5128 15.27559508    16
STARLINK-30370          
1 57751C 23131V   26149.26784722  .00074148  00000+0  24664-2 0  1499
2 57751  43.0012  61.6228 0002442 221.7808 194.6078 15.30307207    16
STARLINK-30368          
1 57752C 23131W   26149.20256944  .00066127  00000+0  23968-2 0  1498
2 57752  43.0040  77.9812 0001418 283.2290 193.5084 15.27522790    14
STARLINK-30343          
1 57753C 23131X   26149.24423611  .00046877  00000+0  16990-2 0  1497
2 57753  43.0042  84.8900 0001504 282.9124 294.2220 15.27532648    14
STARLINK-30397          
1 57771C 23134A   26149.22756944 -.00008869  00000+0 -32140-3 0  1493
2 57771  43.0023  99.8752 0001386 272.4196  10.8428 15.27567092    18
STARLINK-30354          
1 57772C 23134B   26149.27826389  .00062887  00000+0  22779-2 0  1494
2 57772  43.0037 102.4761 0001596 263.8029 153.5199 15.27545354    14
STARLINK-30383          
1 57773C 23134C   26149.21298611  .00029344  00000+0  10628-2 0  1491
2 57773  43.0025 102.8195 0001385 259.7881 172.2730 15.27565172    12
STARLINK-30384          
1 57774C 23134D   26149.22340278  .00035640  00000+0  12906-2 0  1497
2 57774  43.0042 102.8099 0001598 271.9103 196.2678 15.27566580    15
STARLINK-30305          
1 57775C 23134E   26149.23590278 -.00001417  00000+0 -51337-4 0  1496
2 57775  43.0027  99.8747 0001307 276.9529  30.9635 15.27561414    17
STARLINK-30360          
1 57776C 23134F   26149.22548611  .00044117  00000+0  15970-2 0  1493
2 57776  43.0029  99.9509 0001290 275.9487 327.5453 15.27574338    12
STARLINK-30355          
1 57777C 23134G   26149.24076389  .00042431  00000+0  15368-2 0  1492
2 57777  42.9994 103.0721 0001180 268.8267 132.2602 15.27557599    17
STARLINK-30385          
1 57778C 23134H   26149.23034722  .00069323  00000+0  25090-2 0  1499
2 57778  43.0019  88.1489 0001310 270.0800 261.6855 15.27568608    15
STARLINK-30359          
1 57779C 23134J   26149.27270833  .00033470  00000+0  12127-2 0  1490
2 57779  43.0032  88.1350 0001483 276.8825  50.2924 15.27551417    19
STARLINK-30380          
1 57780C 23134K   26149.20743056  .00035402  00000+0  12822-2 0  1496
2 57780  43.0003  99.6876 0001136 271.4354  21.2132 15.27562344    12
STARLINK-30369          
1 57781C 23134L   26149.23451389 -.00020091  00000+0 -72805-3 0  1493
2 57781  42.9996  99.4820 0001230 271.9853 191.0085 15.27572993    17
STARLINK-30376          
1 57782C 23134M   26149.27756944  .00066410  00000+0  24075-2 0  1491
2 57782  43.0000  99.1163 0001264 271.4842 125.2278 15.27516139    16
STARLINK-30389          
1 57783C 23134N   26149.21506944 -.00051364  00000+0 -18612-2 0  1493
2 57783  43.0034 102.7862 0001325 269.3887 181.2346 15.27590061    18
STARLINK-30388          
1 57784C 23134P   26149.24840278  .00058517  00000+0  21193-2 0  1491
2 57784  42.9997  99.3298 0001406 274.3629 300.4670 15.27552755    12
STARLINK-30381          
1 57785C 23134Q   26149.23659722  .00047487  00000+0  17198-2 0  1497
2 57785  43.0014  99.5358 0001204 272.0174 138.8479 15.27558695    19
STARLINK-30382          
1 57786C 23134R   26149.20951389  .00033223  00000+0  12034-2 0  1496
2 57786  43.0010  99.4478 0001413 271.6392 131.5275 15.27559634    15
STARLINK-30378          
1 57787C 23134S   26149.23937500  .00000075  00000+0  27114-5 0  1496
2 57787  43.0021  99.7446 0001326 273.2229  96.2455 15.27566532    18
STARLINK-30387          
1 57788C 23134T   26149.24284722  .00073438  00000+0  26590-2 0  1496
2 57788  43.0030  88.1686 0001333 274.2006 305.1614 15.27553971    11
STARLINK-30372          
1 57789C 23134U   26149.28243056 -.00000142  00000+0 -51353-5 0  1498
2 57789  43.0010 343.2319 0001989 276.5469  94.6221 15.27611678    16
STARLINK-30367          
1 57791C 23134W   26149.28034722  .00017738  00000+0  64276-3 0  1492
2 57791  43.0012  99.3312 0001267 274.1704  38.7214 15.27554358    10
STARLINK-30374          
1 57809C 23138B   26149.28104167  .00011000  00000+0  39847-3 0  1499
2 57809  42.9986 138.7735 0001336 273.2139 205.5748 15.27568492    14
STARLINK-30394          
1 57810C 23138C   26149.22062500 -.00081100  00000+0 -29367-2 0  1494
2 57810  43.0005 139.3005 0001226 270.4706 157.8205 15.27627082    12
STARLINK-30379          
1 57811C 23138D   26149.23034722 -.00051969  00000+0 -18834-2 0  1498
2 57811  43.0013 139.2940 0001190 272.2756 188.4116 15.27586106    16
STARLINK-30395          
1 57812C 23138E   26149.23104167 -.00033675  00000+0 -12201-2 0  1496
2 57812  43.0013 139.3389 0001322 270.3619 172.8762 15.27584334    14
STARLINK-30403          
1 57813C 23138F   26149.24770833 -.00037667  00000+0 -13647-2 0  1497
2 57813  43.0015 139.2829 0001263 270.7449 250.1128 15.27586648    10
STARLINK-30413          
1 57814C 23138G   26149.21437500 -.00046728  00000+0 -16928-2 0  1499
2 57814  42.9989 139.9055 0001267 271.5673 241.8173 15.27595223    15
STARLINK-30398          
1 57815C 23138H   26149.22548611 -.00006872  00000+0 -24910-3 0  1494
2 57815  43.0024 139.5584 0001321 270.7457  64.1051 15.27555998    19
STARLINK-30386          
1 57816C 23138J   26149.24979167 -.00002914  00000+0 -10556-3 0  1495
2 57816  43.0018 139.4724 0001958 267.5692 179.8446 15.27577337    12
